[{"OBJECT_NAME":"FLYING LAPTOP","OBJECT_ID":"2017-042G","EPOCH":"2026-04-05T20:24:58.828032","MEAN_MOTION":15.00714581,"ECCENTRICITY":0.0019681,"INCLINATION":97.4368,"RA_OF_ASC_NODE":254.334,"ARG_OF_PERICENTER":11.0406,"MEAN_ANOMALY":349.1247,"EPHEMERIS_TYPE":0,"CLASSIFICATION_TYPE":"U","NORAD_CAT_ID":42831,"ELEMENT_SET_NO":999,"REV_AT_EPOCH":47560,"BSTAR":0.00046658,"MEAN_MOTION_DOT":5.879e-5,"MEAN_MOTION_DDOT":0},{"OBJECT_NAME":"HAWK-A","OBJECT_ID":"2018-099H","EPOCH":"2026-04-05T16:07:33.044736","MEAN_MOTION":15.23706141,"ECCENTRICITY":0.0035791,"INCLINATION":97.3992,"RA_OF_ASC_NODE":148.8756,"ARG_OF_PERICENTER":178.0945,"MEAN_ANOMALY":182.0435,"EPHEMERIS_TYPE":0,"CLASSIFICATION_TYPE":"U","NORAD_CAT_ID":43765,"ELEMENT_SET_NO":999,"REV_AT_EPOCH":40205,"BSTAR":0.00037814,"MEAN_MOTION_DOT":9.174e-5,"MEAN_MOTION_DDOT":0},{"OBJECT_NAME":"HAWK-B","OBJECT_ID":"2018-099AN","EPOCH":"2026-04-05T16:10:54.645312","MEAN_MOTION":15.21964634,"ECCENTRICITY":0.0032368,"INCLINATION":97.404,"RA_OF_ASC_NODE":148.4404,"ARG_OF_PERICENTER":195.1317,"MEAN_ANOMALY":164.8954,"EPHEMERIS_TYPE":0,"CLASSIFICATION_TYPE":"U","NORAD_CAT_ID":43794,"ELEMENT_SET_NO":999,"REV_AT_EPOCH":40200,"BSTAR":0.00035983,"MEAN_MOTION_DOT":8.256e-5,"MEAN_MOTION_DDOT":0},{"OBJECT_NAME":"HAWK-C","OBJECT_ID":"2018-099AT","EPOCH":"2026-04-05T16:14:50.925984","MEAN_MOTION":15.26970006,"ECCENTRICITY":0.0041745,"INCLINATION":97.3966,"RA_OF_ASC_NODE":149.4467,"ARG_OF_PERICENTER":179.8393,"MEAN_ANOMALY":180.2867,"EPHEMERIS_TYPE":0,"CLASSIFICATION_TYPE":"U","NORAD_CAT_ID":43799,"ELEMENT_SET_NO":999,"REV_AT_EPOCH":40284,"BSTAR":0.0004132,"MEAN_MOTION_DOT":0.00011152,"MEAN_MOTION_DDOT":0},{"OBJECT_NAME":"SALSAT","OBJECT_ID":"2020-068K","EPOCH":"2026-04-05T13:55:30.104256","MEAN_MOTION":15.28738181,"ECCENTRICITY":0.0009619,"INCLINATION":97.8868,"RA_OF_ASC_NODE":94.287,"ARG_OF_PERICENTER":186.5581,"MEAN_ANOMALY":173.5533,"EPHEMERIS_TYPE":0,"CLASSIFICATION_TYPE":"U","NORAD_CAT_ID":46495,"ELEMENT_SET_NO":999,"REV_AT_EPOCH":30426,"BSTAR":0.00035593,"MEAN_MOTION_DOT":9.877e-5,"MEAN_MOTION_DDOT":0},{"OBJECT_NAME":"HAWK-2C","OBJECT_ID":"2021-006CT","EPOCH":"2026-04-05T16:33:59.980320","MEAN_MOTION":15.33778677,"ECCENTRICITY":0.0008882,"INCLINATION":97.2353,"RA_OF_ASC_NODE":141.4638,"ARG_OF_PERICENTER":100.7859,"MEAN_ANOMALY":259.4384,"EPHEMERIS_TYPE":0,"CLASSIFICATION_TYPE":"U","NORAD_CAT_ID":47502,"ELEMENT_SET_NO":999,"REV_AT_EPOCH":28838,"BSTAR":0.00025545,"MEAN_MOTION_DOT":8.278e-5,"MEAN_MOTION_DDOT":0},{"OBJECT_NAME":"HAWK-2A","OBJECT_ID":"2021-006CW","EPOCH":"2026-04-05T16:38:29.639904","MEAN_MOTION":15.33791038,"ECCENTRICITY":0.0008452,"INCLINATION":97.2399,"RA_OF_ASC_NODE":142.1021,"ARG_OF_PERICENTER":103.6908,"MEAN_ANOMALY":256.5277,"EPHEMERIS_TYPE":0,"CLASSIFICATION_TYPE":"U","NORAD_CAT_ID":47505,"ELEMENT_SET_NO":999,"REV_AT_EPOCH":28838,"BSTAR":0.00025764,"MEAN_MOTION_DOT":8.352e-5,"MEAN_MOTION_DDOT":0},{"OBJECT_NAME":"HAWK-2B","OBJECT_ID":"2021-006CZ","EPOCH":"2026-04-05T16:34:21.577728","MEAN_MOTION":15.33786914,"ECCENTRICITY":0.0009027,"INCLINATION":97.2272,"RA_OF_ASC_NODE":140.5512,"ARG_OF_PERICENTER":101.609,"MEAN_ANOMALY":258.6166,"EPHEMERIS_TYPE":0,"CLASSIFICATION_TYPE":"U","NORAD_CAT_ID":47508,"ELEMENT_SET_NO":999,"REV_AT_EPOCH":28838,"BSTAR":0.00029563,"MEAN_MOTION_DOT":9.596e-5,"MEAN_MOTION_DDOT":0},{"OBJECT_NAME":"HAWK-3B","OBJECT_ID":"2021-059BE","EPOCH":"2026-04-05T12:12:26.586720","MEAN_MOTION":15.63940854,"ECCENTRICITY":0.00050937,"INCLINATION":97.6714,"RA_OF_ASC_NODE":285.6565,"ARG_OF_PERICENTER":226.1954,"MEAN_ANOMALY":133.8884,"EPHEMERIS_TYPE":0,"CLASSIFICATION_TYPE":"U","NORAD_CAT_ID":48931,"ELEMENT_SET_NO":999,"REV_AT_EPOCH":26647,"BSTAR":0.0004918232,"MEAN_MOTION_DOT":0.00046339,"MEAN_MOTION_DDOT":0},{"OBJECT_NAME":"HAWK-3C","OBJECT_ID":"2021-059BX","EPOCH":"2026-04-05T12:11:59.107200","MEAN_MOTION":15.63931923,"ECCENTRICITY":0.0005306,"INCLINATION":97.6847,"RA_OF_ASC_NODE":291.2095,"ARG_OF_PERICENTER":226.4683,"MEAN_ANOMALY":133.6134,"EPHEMERIS_TYPE":0,"CLASSIFICATION_TYPE":"U","NORAD_CAT_ID":48948,"ELEMENT_SET_NO":999,"REV_AT_EPOCH":26647,"BSTAR":0.00047892654,"MEAN_MOTION_DOT":0.000451,"MEAN_MOTION_DDOT":0},{"OBJECT_NAME":"HAWK-3A","OBJECT_ID":"2021-059CG","EPOCH":"2026-04-05T12:11:49.747488","MEAN_MOTION":15.63932077,"ECCENTRICITY":0.00050841,"INCLINATION":97.6789,"RA_OF_ASC_NODE":288.4742,"ARG_OF_PERICENTER":226.0997,"MEAN_ANOMALY":133.9842,"EPHEMERIS_TYPE":0,"CLASSIFICATION_TYPE":"U","NORAD_CAT_ID":48957,"ELEMENT_SET_NO":999,"REV_AT_EPOCH":26647,"BSTAR":0.00049725749,"MEAN_MOTION_DOT":0.00046839,"MEAN_MOTION_DDOT":0},{"OBJECT_NAME":"HAWK-5C","OBJECT_ID":"2022-057Y","EPOCH":"2026-04-05T20:54:21.470976","MEAN_MOTION":15.488129,"ECCENTRICITY":0.0004224,"INCLINATION":97.6506,"RA_OF_ASC_NODE":251.0734,"ARG_OF_PERICENTER":338.7297,"MEAN_ANOMALY":21.3776,"EPHEMERIS_TYPE":0,"CLASSIFICATION_TYPE":"U","NORAD_CAT_ID":52754,"ELEMENT_SET_NO":999,"REV_AT_EPOCH":21514,"BSTAR":0.00041771,"MEAN_MOTION_DOT":0.00022396,"MEAN_MOTION_DDOT":0},{"OBJECT_NAME":"HAWK-5B","OBJECT_ID":"2022-057AA","EPOCH":"2026-04-05T16:14:59.890848","MEAN_MOTION":15.48807015,"ECCENTRICITY":0.000419,"INCLINATION":97.6512,"RA_OF_ASC_NODE":249.2096,"ARG_OF_PERICENTER":332.409,"MEAN_ANOMALY":27.6937,"EPHEMERIS_TYPE":0,"CLASSIFICATION_TYPE":"U","NORAD_CAT_ID":52756,"ELEMENT_SET_NO":999,"REV_AT_EPOCH":21511,"BSTAR":0.00044901,"MEAN_MOTION_DOT":0.00024082,"MEAN_MOTION_DDOT":0},{"OBJECT_NAME":"HAWK-5A","OBJECT_ID":"2022-057AB","EPOCH":"2026-04-05T20:53:48.903360","MEAN_MOTION":15.48818869,"ECCENTRICITY":0.0004551,"INCLINATION":97.651,"RA_OF_ASC_NODE":250.2484,"ARG_OF_PERICENTER":334.7233,"MEAN_ANOMALY":25.3793,"EPHEMERIS_TYPE":0,"CLASSIFICATION_TYPE":"U","NORAD_CAT_ID":52757,"ELEMENT_SET_NO":999,"REV_AT_EPOCH":21514,"BSTAR":0.00042217,"MEAN_MOTION_DOT":0.00022643,"MEAN_MOTION_DDOT":0},{"OBJECT_NAME":"HAWK-6B","OBJECT_ID":"2023-011A","EPOCH":"2026-04-05T13:47:06.990144","MEAN_MOTION":15.22276786,"ECCENTRICITY":0.0004675,"INCLINATION":40.4997,"RA_OF_ASC_NODE":55.3833,"ARG_OF_PERICENTER":251.2325,"MEAN_ANOMALY":108.7977,"EPHEMERIS_TYPE":0,"CLASSIFICATION_TYPE":"U","NORAD_CAT_ID":55324,"ELEMENT_SET_NO":999,"REV_AT_EPOCH":17677,"BSTAR":0.00031975,"MEAN_MOTION_DOT":7.329e-5,"MEAN_MOTION_DDOT":0},{"OBJECT_NAME":"HAWK-6C","OBJECT_ID":"2023-011C","EPOCH":"2026-04-05T13:46:15.116448","MEAN_MOTION":15.22279298,"ECCENTRICITY":0.0004551,"INCLINATION":40.4989,"RA_OF_ASC_NODE":52.2337,"ARG_OF_PERICENTER":241.4021,"MEAN_ANOMALY":118.633,"EPHEMERIS_TYPE":0,"CLASSIFICATION_TYPE":"U","NORAD_CAT_ID":55326,"ELEMENT_SET_NO":999,"REV_AT_EPOCH":17678,"BSTAR":0.00033068,"MEAN_MOTION_DOT":7.587e-5,"MEAN_MOTION_DDOT":0},{"OBJECT_NAME":"HAWK-6A","OBJECT_ID":"2023-011D","EPOCH":"2026-04-05T13:46:17.247936","MEAN_MOTION":15.2227864,"ECCENTRICITY":0.0004343,"INCLINATION":40.5003,"RA_OF_ASC_NODE":53.8511,"ARG_OF_PERICENTER":242.4619,"MEAN_ANOMALY":117.5749,"EPHEMERIS_TYPE":0,"CLASSIFICATION_TYPE":"U","NORAD_CAT_ID":55327,"ELEMENT_SET_NO":999,"REV_AT_EPOCH":17678,"BSTAR":0.00033053,"MEAN_MOTION_DOT":7.583e-5,"MEAN_MOTION_DDOT":0}]
