FLYING LAPTOP           
1 42831U 17042G   26095.85068088  .00005879  00000+0  46658-3 0  9997
2 42831  97.4368 254.3340 0019681  11.0406 349.1247 15.00714581475609
HAWK-A                  
1 43765U 18099H   26095.67191024  .00009174  00000+0  37814-3 0  9990
2 43765  97.3992 148.8756 0035791 178.0945 182.0435 15.23706141402058
HAWK-B                  
1 43794U 18099AN  26095.67424358  .00008256  00000+0  35983-3 0  9996
2 43794  97.4040 148.4404 0032368 195.1317 164.8954 15.21964634402001
HAWK-C                  
1 43799U 18099AT  26095.67697831  .00011152  00000+0  41320-3 0  9990
2 43799  97.3966 149.4467 0041745 179.8393 180.2867 15.26970006402846
SALSAT                  
1 46495U 20068K   26095.58020954  .00009877  00000+0  35593-3 0  9997
2 46495  97.8868  94.2870 0009619 186.5581 173.5533 15.28738181304261
HAWK-2C                 
1 47502U 21006CT  26095.69027755  .00008278  00000+0  25545-3 0  9998
2 47502  97.2353 141.4638 0008882 100.7859 259.4384 15.33778677288380
HAWK-2A                 
1 47505U 21006CW  26095.69339861  .00008352  00000+0  25764-3 0  9991
2 47505  97.2399 142.1021 0008452 103.6908 256.5277 15.33791038288382
HAWK-2B                 
1 47508U 21006CZ  26095.69052752  .00009596  00000+0  29563-3 0  9997
2 47508  97.2272 140.5512 0009027 101.6090 258.6166 15.33786914288388
HAWK-3B                 
1 48931U 21059BE  26095.50864105  .00046339  00000+0  49182-3 0  9994
2 48931  97.6714 285.6565 0005093 226.1954 133.8884 15.63940854266479
HAWK-3C                 
1 48948U 21059BX  26095.50832300  .00045100  00000+0  47893-3 0  9996
2 48948  97.6847 291.2095 0005306 226.4683 133.6134 15.63931923266477
HAWK-3A                 
1 48957U 21059CG  26095.50821467  .00046839  00000+0  49726-3 0  9995
2 48957  97.6789 288.4742 0005084 226.0997 133.9842 15.63932077266476
HAWK-5C                 
1 52754U 22057Y   26095.87108184  .00022396  00000+0  41771-3 0  9992
2 52754  97.6506 251.0734 0004224 338.7297  21.3776 15.48812900215148
HAWK-5B                 
1 52756U 22057AA  26095.67708207  .00024082  00000+0  44901-3 0  9996
2 52756  97.6512 249.2096 0004190 332.4090  27.6937 15.48807015215117
HAWK-5A                 
1 52757U 22057AB  26095.87070490  .00022643  00000+0  42217-3 0  9994
2 52757  97.6510 250.2484 0004551 334.7233  25.3793 15.48818869215141
HAWK-6B                 
1 55324U 23011A   26095.57438646  .00007329  00000+0  31975-3 0  9999
2 55324  40.4997  55.3833 0004675 251.2325 108.7977 15.22276786176776
HAWK-6C                 
1 55326U 23011C   26095.57378607  .00007587  00000+0  33068-3 0  9992
2 55326  40.4989  52.2337 0004551 241.4021 118.6330 15.22279298176786
HAWK-6A                 
1 55327U 23011D   26095.57381074  .00007583  00000+0  33053-3 0  9995
2 55327  40.5003  53.8511 0004343 242.4619 117.5749 15.22278640176781
